{
  "type": "FeatureCollection",
  "features": [
    {
      "type": "Feature",
      "properties": {
        "norad_id": 31841,
        "name": "FENGYUN 1C DEB",
        "group": "fengyun-1c-debris",
        "lat": -50.023925296756715,
        "lon": 169.5904670817448,
        "alt_km": 672.2598091456621,
        "timestamp": "2025-12-16T23:36:36.480974+00:00",
        "meta_object_name": "FENGYUN 1C DEB",
        "meta_object_id": "1999-025CJF",
        "meta_epoch": "2025-12-15T05:57:44.822880",
        "meta_mean_motion": 14.03592641,
        "meta_eccentricity": 0.03085238,
        "meta_inclination": 98.4166,
        "meta_ra_of_asc_node": 157.8094,
        "meta_arg_of_pericenter": 298.3378,
        "meta_mean_anomaly": 246.4475,
        "meta_ephemeris_type": 0,
        "meta_classification_type": "U",
        "meta_norad_cat_id": 31841,
        "meta_element_set_no": 999,
        "meta_rev_at_epoch": 59374,
        "meta_bstar": 0.0012677307,
        "meta_mean_motion_dot": 2.992e-05,
        "meta_mean_motion_ddot": 0,
        "tle_line1": "1 31841U 99025CJF 25349.24843545  .00002992  00000+0  12677-2 0  9996",
        "tle_line2": "2 31841  98.4166 157.8094 0308523 298.3378 246.4475 14.03592641593743"
      },
      "geometry": {
        "type": "Point",
        "coordinates": [
          169.5904670817448,
          -50.023925296756715
        ]
      }
    },
    {
      "type": "Feature",
      "properties": {
        "norad_id": 31843,
        "name": "FENGYUN 1C DEB",
        "group": "fengyun-1c-debris",
        "lat": 31.127483427088873,
        "lon": 116.98215547025855,
        "alt_km": 1591.281368879433,
        "timestamp": "2025-12-16T23:36:36.480986+00:00",
        "meta_object_name": "FENGYUN 1C DEB",
        "meta_object_id": "1999-025CJH",
        "meta_epoch": "2025-12-16T01:16:10.071840",
        "meta_mean_motion": 13.33938175,
        "meta_eccentricity": 0.06399157,
        "meta_inclination": 99.2824,
        "meta_ra_of_asc_node": 290.4641,
        "meta_arg_of_pericenter": 345.9319,
        "meta_mean_anomaly": 12.4689,
        "meta_ephemeris_type": 0,
        "meta_classification_type": "U",
        "meta_norad_cat_id": 31843,
        "meta_element_set_no": 999,
        "meta_rev_at_epoch": 64740,
        "meta_bstar": 0.005668535,
        "meta_mean_motion_dot": 9.068e-05,
        "meta_mean_motion_ddot": 0,
        "tle_line1": "1 31843U 99025CJH 25350.05289435  .00009068  00000+0  56685-2 0  9999",
        "tle_line2": "2 31843  99.2824 290.4641 0639915 345.9319  12.4689 13.33938175647402"
      },
      "geometry": {
        "type": "Point",
        "coordinates": [
          116.98215547025855,
          31.127483427088873
        ]
      }
    },
    {
      "type": "Feature",
      "properties": {
        "norad_id": 31844,
        "name": "FENGYUN 1C DEB",
        "group": "fengyun-1c-debris",
        "lat": 59.131539552716134,
        "lon": 178.0575084995105,
        "alt_km": 876.8773853739049,
        "timestamp": "2025-12-16T23:36:36.480997+00:00",
        "meta_object_name": "FENGYUN 1C DEB",
        "meta_object_id": "1999-025CJJ",
        "meta_epoch": "2025-12-13T22:19:33.784896",
        "meta_mean_motion": 14.19755878,
        "meta_eccentricity": 0.01034294,
        "meta_inclination": 100.3032,
        "meta_ra_of_asc_node": 336.7917,
        "meta_arg_of_pericenter": 347.7797,
        "meta_mean_anomaly": 12.0868,
        "meta_ephemeris_type": 0,
        "meta_classification_type": "U",
        "meta_norad_cat_id": 31844,
        "meta_element_set_no": 999,
        "meta_rev_at_epoch": 95349,
        "meta_bstar": 0.0011790432,
        "meta_mean_motion_dot": 2.577e-05,
        "meta_mean_motion_ddot": 0,
        "tle_line1": "1 31844U 99025CJJ 25347.93025214  .00002577  00000+0  11790-2 0  9992",
        "tle_line2": "2 31844 100.3032 336.7917 0103429 347.7797  12.0868 14.19755878953490"
      },
      "geometry": {
        "type": "Point",
        "coordinates": [
          178.0575084995105,
          59.131539552716134
        ]
      }
    },
    {
      "type": "Feature",
      "properties": {
        "norad_id": 31850,
        "name": "FENGYUN 1C DEB",
        "group": "fengyun-1c-debris",
        "lat": -81.00814956169681,
        "lon": 143.78310290366264,
        "alt_km": 521.747847067657,
        "timestamp": "2025-12-16T23:36:36.481007+00:00",
        "meta_object_name": "FENGYUN 1C DEB",
        "meta_object_id": "1999-025CJQ",
        "meta_epoch": "2025-12-14T09:23:04.476192",
        "meta_mean_motion": 15.33433546,
        "meta_eccentricity": 0.00762245,
        "meta_inclination": 98.5734,
        "meta_ra_of_asc_node": 33.2199,
        "meta_arg_of_pericenter": 83.7911,
        "meta_mean_anomaly": 277.2005,
        "meta_ephemeris_type": 0,
        "meta_classification_type": "U",
        "meta_norad_cat_id": 31850,
        "meta_element_set_no": 999,
        "meta_rev_at_epoch": 65854,
        "meta_bstar": 0.0030655456,
        "meta_mean_motion_dot": 0.00109983,
        "meta_mean_motion_ddot": 0,
        "tle_line1": "1 31850U 99025CJQ 25348.39102403  .00109983  00000+0  30655-2 0  9996",
        "tle_line2": "2 31850  98.5734  33.2199 0076224  83.7911 277.2005 15.33433546658540"
      },
      "geometry": {
        "type": "Point",
        "coordinates": [
          143.78310290366264,
          -81.00814956169681
        ]
      }
    },
    {
      "type": "Feature",
      "properties": {
        "norad_id": 31854,
        "name": "FENGYUN 1C DEB",
        "group": "fengyun-1c-debris",
        "lat": 6.476319538752465,
        "lon": 175.0795455471437,
        "alt_km": 847.1398100352335,
        "timestamp": "2025-12-16T23:36:36.481019+00:00",
        "meta_object_name": "FENGYUN 1C DEB",
        "meta_object_id": "1999-025CJU",
        "meta_epoch": "2025-12-16T07:23:20.908032",
        "meta_mean_motion": 14.03079065,
        "meta_eccentricity": 0.00722945,
        "meta_inclination": 98.8474,
        "meta_ra_of_asc_node": 353.4095,
        "meta_arg_of_pericenter": 131.3136,
        "meta_mean_anomaly": 229.4284,
        "meta_ephemeris_type": 0,
        "meta_classification_type": "U",
        "meta_norad_cat_id": 31854,
        "meta_element_set_no": 999,
        "meta_rev_at_epoch": 69322,
        "meta_bstar": 0.00056523965,
        "meta_mean_motion_dot": 8.57e-06,
        "meta_mean_motion_ddot": 0,
        "tle_line1": "1 31854U 99025CJU 25350.30788088  .00000857  00000+0  56524-3 0  9997",
        "tle_line2": "2 31854  98.8474 353.4095 0072294 131.3136 229.4284 14.03079065693222"
      },
      "geometry": {
        "type": "Point",
        "coordinates": [
          175.0795455471437,
          6.476319538752465
        ]
      }
    },
    {
      "type": "Feature",
      "properties": {
        "norad_id": 31857,
        "name": "FENGYUN 1C DEB",
        "group": "fengyun-1c-debris",
        "lat": 31.054939317872233,
        "lon": 15.268102963222194,
        "alt_km": 1139.8800182567675,
        "timestamp": "2025-12-16T23:36:36.481029+00:00",
        "meta_object_name": "FENGYUN 1C DEB",
        "meta_object_id": "1999-025CJX",
        "meta_epoch": "2025-12-15T21:00:25.166592",
        "meta_mean_motion": 13.61938441,
        "meta_eccentricity": 0.03090507,
        "meta_inclination": 96.1875,
        "meta_ra_of_asc_node": 18.3078,
        "meta_arg_of_pericenter": 273.3355,
        "meta_mean_anomaly": 83.2492,
        "meta_ephemeris_type": 0,
        "meta_classification_type": "U",
        "meta_norad_cat_id": 31857,
        "meta_element_set_no": 999,
        "meta_rev_at_epoch": 61672,
        "meta_bstar": 0.0015742297,
        "meta_mean_motion_dot": 1.644e-05,
        "meta_mean_motion_ddot": 0,
        "tle_line1": "1 31857U 99025CJX 25349.87529128  .00001644  00000+0  15742-2 0  9999",
        "tle_line2": "2 31857  96.1875  18.3078 0309050 273.3355  83.2492 13.61938441616724"
      },
      "geometry": {
        "type": "Point",
        "coordinates": [
          15.268102963222194,
          31.054939317872233
        ]
      }
    },
    {
      "type": "Feature",
      "properties": {
        "norad_id": 31861,
        "name": "FENGYUN 1C DEB",
        "group": "fengyun-1c-debris",
        "lat": -54.39828014697941,
        "lon": -13.352905491246005,
        "alt_km": 860.5739021689487,
        "timestamp": "2025-12-16T23:36:36.481039+00:00",
        "meta_object_name": "FENGYUN 1C DEB",
        "meta_object_id": "1999-025CKB",
        "meta_epoch": "2025-11-30T18:20:57.621120",
        "meta_mean_motion": 13.30200627,
        "meta_eccentricity": 0.04966148,
        "meta_inclination": 102.3423,
        "meta_ra_of_asc_node": 165.0071,
        "meta_arg_of_pericenter": 230.9853,
        "meta_mean_anomaly": 124.6046,
        "meta_ephemeris_type": 0,
        "meta_classification_type": "U",
        "meta_norad_cat_id": 31861,
        "meta_element_set_no": 999,
        "meta_rev_at_epoch": 66608,
        "meta_bstar": 0.0034105388,
        "meta_mean_motion_dot": 3.105e-05,
        "meta_mean_motion_ddot": 0,
        "tle_line1": "1 31861U 99025CKB 25334.76455580  .00003105  00000+0  34105-2 0  9994",
        "tle_line2": "2 31861 102.3423 165.0071 0496614 230.9853 124.6046 13.30200627666089"
      },
      "geometry": {
        "type": "Point",
        "coordinates": [
          -13.352905491246005,
          -54.39828014697941
        ]
      }
    }
  ]
}